SKYSAT-A                
1 39418U 13066C   26118.12064999  .00003403  00000+0  19691-3 0  9997
2 39418  97.3861 169.1122 0023019 125.3494 234.9893 15.12680169680917
SKYSAT-B                
1 40072U 14037D   26118.29522553  .00001624  00000+0  18405-3 0  9992
2 40072  98.3801  74.4337 0006997  81.7257 278.4751 14.87892558638540
SKYSAT-C1               
1 41601U 16040C   26118.04870527  .00010316  00000+0  30159-3 0  9995
2 41601  96.9616 152.5058 0002669 160.4130 199.7218 15.35446466550174
SKYSAT-C4               
1 41771U 16058B   26118.29212408  .00016181  00000+0  32155-3 0  9991
2 41771  96.9217 142.2005 0003482  93.1011 267.0639 15.47031085537756
SKYSAT-C5               
1 41772U 16058C   26118.07436750  .00009100  00000+0  28105-3 0  9999
2 41772  97.0524 160.9646 0004977 106.8220 253.3570 15.33739038536065
SKYSAT-C2               
1 41773U 16058D   26118.33961857  .00011931  00000+0  29176-3 0  9994
2 41773  97.0211 142.3437 0002349 189.4006 170.7198 15.40937250537378
SKYSAT-C3               
1 41774U 16058E   26118.02813397  .00024020  00000+0  42260-3 0  9998
2 41774  96.9090 150.8607 0002734 103.0005 257.1553 15.50457623538338
SKYSAT-C11              
1 42987U 17068A   26117.97818083  .00030206  00000+0  44608-3 0  9998
2 42987  97.4287 264.7448 0001564 138.1332 222.0042 15.55303656475435
SKYSAT-C10              
1 42988U 17068B   26118.33146359  .00010173  00000+0  31403-3 0  9990
2 42988  97.4424 254.7488 0001664 109.0385 251.1038 15.33754826474711
SKYSAT-C9               
1 42989U 17068C   26118.30145287  .00013449  00000+0  33509-3 0  9995
2 42989  97.4348 255.1905 0007495 322.2794  37.7926 15.40329386475078
SKYSAT-C8               
1 42990U 17068D   26118.31141602  .00011724  00000+0  33696-3 0  9996
2 42990  97.4444 254.3428 0001231 112.1821 247.9553 15.35972378474650
SKYSAT-C7               
1 42991U 17068E   26118.30314379  .00011069  00000+0  31883-3 0  9997
2 42991  97.4454 255.3207 0004661 287.1312  72.9421 15.35912411474715
SKYSAT-C6               
1 42992U 17068F   26118.30816263  .00010099  00000+0  31356-3 0  9994
2 42992  97.4490 255.4604 0001645 355.0024   5.1201 15.33571155474675
SKYSAT-C12              
1 43797U 18099AR  26118.32233876  .00016374  00000+0  32228-3 0  9999
2 43797  96.9304 143.6146 0003216   8.8173 351.3134 15.47309971414147
SKYSAT-C13              
1 43802U 18099AW  26118.06416430  .00168388  00000+0  61149-3 0  9993
2 43802  96.9279 166.1541 0002679  98.6397 261.5180 15.88093395414970
FLOCK 4Q-16             
1 58271U 23174R   26118.20448947  .00021773  00000+0  43063-3 0  9994
2 58271  97.3830 205.2418 0005171 353.4741   6.6440 15.47113503137841
FLOCK 4Q-11             
1 58273U 23174T   26118.19832144  .00021653  00000+0  42167-3 0  9991
2 58273  97.3865 205.7765 0004808 350.7862   9.3299 15.47565667137856
FLOCK 4Q-36             
1 58274U 23174U   26118.23034702  .00037253  00000+0  56617-3 0  9999
2 58274  97.3849 208.9385 0005201 318.8684  41.2177 15.54460124138061
FLOCK 4Q-28             
1 58280U 23174AA  26117.74006902  .00027354  00000+0  45525-3 0  9999
2 58280  97.3883 207.4021 0003761 331.4430  28.6616 15.52004293137915
FLOCK 4Q-27             
1 58282U 23174AC  26118.18956058  .00027113  00000+0  45261-3 0  9996
2 58282  97.3815 207.3554 0003590 329.7219  30.3825 15.51921402137996
FLOCK 4Q-26             
1 58284U 23174AE  26118.22974828  .00032768  00000+0  50514-3 0  9997
2 58284  97.3875 209.0186 0004757 331.3536  28.7456 15.54095882138068
FLOCK 4Q-31             
1 58285U 23174AF  26118.20307277  .00034059  00000+0  52518-3 0  9995
2 58285  97.3910 208.6440 0004451 328.6156  31.4831 15.54082377138013
FLOCK 4Q-30             
1 58286U 23174AG  26118.24884746  .00035671  00000+0  54602-3 0  9998
2 58286  97.3928 208.9015 0003074 327.2916  32.8147 15.54281877138036
PELICAN-1               
1 58296U 23174AS  26118.23845347  .00156865  00000+0  12062-2 0  9994
2 58296  97.3997 215.4997 0003199 145.1552 214.9921 15.71545454138313
FLOCK 4Q-29             
1 58304U 23174BA  26118.19180869  .00028577  00000+0  46390-3 0  9990
2 58304  97.3926 208.3262 0003987 316.6173  43.4766 15.52691424137993
FLOCK 4Q-22             
1 58306U 23174BC  26118.18624810  .00039085  00000+0  56197-3 0  9992
2 58306  97.3815 208.6599 0003092 312.2962  47.8030 15.55978413138085
FLOCK 4Q-33             
1 58308U 23174BE  26118.20860770  .00031343  00000+0  47442-3 0  9996
2 58308  97.3852 208.5577 0004135 309.9604  50.1287 15.54611607138065
FLOCK 4Q-35             
1 58309U 23174BF  26118.22954642  .00033871  00000+0  53196-3 0  9992
2 58309  97.3876 208.6781 0004163 326.2338  33.8650 15.53576819138041
FLOCK 4Q-7              
1 58318U 23174BQ  26118.23418544  .00031351  00000+0  51303-3 0  9998
2 58318  97.3912 208.1492 0004969 314.3877  45.6968 15.52445131137993
FLOCK 4Q-2              
1 58320U 23174BS  26118.24518093  .00022022  00000+0  43041-3 0  9997
2 58320  97.3832 205.5870 0004488 321.3394  38.7534 15.47459592137875
FLOCK 4Q-9              
1 58322U 23174BU  26118.20774928  .00027192  00000+0  53262-3 0  9995
2 58322  97.3869 205.5973 0004598 321.7443  38.3480 15.47353877137855
FLOCK 4Q-4              
1 58327U 23174BZ  26118.22803234  .00020549  00000+0  41436-3 0  9994
2 58327  97.3823 204.9180 0004855 354.3229   5.7964 15.46562679137837
FLOCK 4Q-13             
1 58328U 23174CA  26118.23579292  .00021753  00000+0  39589-3 0  9994
2 58328  97.3997 207.6765 0005070 339.8095  20.2955 15.49511647137933
FLOCK 4BE-18            
1 60480U 24149N   26118.21150624  .00018221  00000+0  45453-3 0  9994
2 60480  97.3731 201.4818 0005009  87.6836 272.4984 15.40239411 94612
FLOCK 4BE-7             
1 60481U 24149P   26118.16169222  .00020871  00000+0  55502-3 0  9993
2 60481  97.3764 200.8852 0004209  94.1028 266.0698 15.38251173 94557
FLOCK 4BE-26            
1 60484U 24149S   26118.21036893  .00146476  00000+0  20852-2 0  9998
2 60484  97.3688 202.1863 0002396 142.4585 217.6837 15.55835084 94669
FLOCK 4BE-36            
1 60486U 24149U   26118.21171620  .00017507  00000+0  42408-3 0  9992
2 60486  97.3746 202.1035 0005078  96.5800 263.6024 15.41139986 94657
FLOCK 4BE-25            
1 60487U 24149V   26118.19066490  .00014821  00000+0  40446-3 0  9994
2 60487  97.3803 201.0532 0003665  94.7507 265.4156 15.37526783 94551
FLOCK 4BE-31            
1 60488U 24149W   26118.15144047  .00020452  00000+0  47820-3 0  9996
2 60488  97.3804 202.7717 0004009  99.7198 260.4502 15.42180907 94662
FLOCK 4BE-20            
1 60489U 24149X   26118.19386451  .00014613  00000+0  40896-3 0  9996
2 60489  97.3704 200.0624 0005198  94.8476 265.3362 15.36738822 94537
FLOCK 4BE-23            
1 60490U 24149Y   26118.17218751  .00014015  00000+0  39704-3 0  9995
2 60490  97.3786 200.3891 0005084 101.1300 259.0515 15.36367464 94518
FLOCK 4BE-15            
1 60491U 24149Z   26118.19838673  .00102947  00000+0  18670-2 0  9999
2 60491  97.3714 202.1106 0005471 169.6540 190.4825 15.49220598 94662
FLOCK 4BE-17            
1 60492U 24149AA  26118.22174732  .00015960  00000+0  42431-3 0  9994
2 60492  97.3779 201.2539 0004380  93.3419 266.8327 15.38315680 94570
FLOCK 4BE-22            
1 60494U 24149AC  26118.18219226  .00016938  00000+0  43122-3 0  9993
2 60494  97.3736 201.3300 0005026  98.5440 261.6376 15.39631223 94607
FLOCK 4BE-34            
1 60495U 24149AD  26118.20027878  .00015930  00000+0  40478-3 0  9999
2 60495  97.3784 202.1368 0005346 105.7386 254.4450 15.39702673 94633
FLOCK 4BE-32            
1 60497U 24149AF  26118.19689932  .00017185  00000+0  42589-3 0  9993
2 60497  97.3725 201.6513 0005289 103.5386 256.6450 15.40448976 94637
FLOCK 4BE-30            
1 60499U 24149AH  26118.18638699  .00087536  00000+0  17693-2 0  9992
2 60499  97.3794 202.4580 0003463 167.1214 193.0124 15.46152639 94025
FLOCK 4BE-11            
1 60501U 24149AK  26118.21887765  .00018332  00000+0  44151-3 0  9998
2 60501  97.3704 201.8535 0005289 102.5136 257.6702 15.41302667 94658
FLOCK 4BE-24            
1 60505U 24149AP  26118.20500255  .00020303  00000+0  49025-3 0  9993
2 60505  97.3720 202.0855 0005399 111.1129 249.0695 15.41203535 94669
TANAGER-1               
1 60507U 24149AR  26118.14879167  .00012124  00000+0  26471-3 0  9991
2 60507  97.3447 212.1560 0007440 122.5683 237.6285 15.44322487 95314
FLOCK 4BE-29            
1 60509U 24149AT  26118.18937634  .00019122  00000+0  44263-3 0  9995
2 60509  97.3809 203.3755 0004254 116.6808 243.4875 15.42495676 94700
FLOCK 4BE-2             
1 60511U 24149AV  26118.22286248  .00045731  00000+0  87910-3 0  9992
2 60511  97.3820 204.2984 0004674 117.1043 243.0685 15.47789195 94761
FLOCK 4BE-13            
1 60512U 24149AW  26118.22694577  .00014805  00000+0  36640-3 0  9993
2 60512  97.3721 202.1728 0005484  95.6797 264.5075 15.40522541 94675
FLOCK 4BE-27            
1 60513U 24149AX  26118.16194512  .00009633  00000+0  29909-3 0  9994
2 60513  97.3831 200.0233 0005577 116.7326 243.4488 15.33570569 94479
FLOCK 4BE-9             
1 60514U 24149AY  26118.18818169  .00016749  00000+0  43137-3 0  9993
2 60514  97.3792 202.0346 0004474 118.2704 241.8994 15.39281926 94628
FLOCK 4BE-6             
1 60516U 24149BA  26118.17963491  .00014871  00000+0  39700-3 0  9998
2 60516  97.3794 201.4734 0005247 116.4368 243.7416 15.38199583 94582
FLOCK 4BE-14            
1 60517U 24149BB  26118.20629714  .00017446  00000+0  44665-3 0  9997
2 60517  97.3701 201.5988 0006184 116.1552 244.0330 15.39447234 94631
FLOCK 4BE-1             
1 60518U 24149BC  26118.20734093  .00018205  00000+0  44382-3 0  9995
2 60518  97.3781 202.7040 0005645 116.1854 243.9974 15.40934493 94674
FLOCK 4BE-28            
1 60519U 24149BD  26118.23009562  .00018883  00000+0  42763-3 0  9998
2 60519  97.3749 203.2999 0005753 111.7963 248.3897 15.43146077 94736
